{
  "type": "FeatureCollection",
  "features": [
    {
      "type": "Feature",
      "properties": {
        "norad_id": 39227,
        "name": "ARIRANG-5 (KOMPSAT-5)",
        "group": "resource",
        "lat": -79.42889804231895,
        "lon": -41.536563028168835,
        "alt_km": 561.7508848726666,
        "timestamp": "2025-12-26T03:50:11.744719+00:00",
        "meta_object_name": "ARIRANG-5 (KOMPSAT-5)",
        "meta_object_id": "2013-042A",
        "meta_epoch": "2025-12-25T20:17:15.649728",
        "meta_mean_motion": 15.04488012,
        "meta_eccentricity": 0.0002986,
        "meta_inclination": 97.6165,
        "meta_ra_of_asc_node": 183.963,
        "meta_arg_of_pericenter": 33.4104,
        "meta_mean_anomaly": 326.731,
        "meta_ephemeris_type": 0,
        "meta_classification_type": "U",
        "meta_norad_cat_id": 39227,
        "meta_element_set_no": 999,
        "meta_rev_at_epoch": 67779,
        "meta_bstar": 0.00017973,
        "meta_mean_motion_dot": 2.455e-05,
        "meta_mean_motion_ddot": 0,
        "tle_line1": "1 39227U 13042A   25359.84532002  .00002455  00000+0  17973-3 0  9996",
        "tle_line2": "2 39227  97.6165 183.9630 0002986  33.4104 326.7310 15.04488012677790"
      },
      "geometry": {
        "type": "Point",
        "coordinates": [
          -41.536563028168835,
          -79.42889804231895
        ]
      }
    },
    {
      "type": "Feature",
      "properties": {
        "norad_id": 39418,
        "name": "SKYSAT-A",
        "group": "resource",
        "lat": -77.52183322967343,
        "lon": -166.05438024103887,
        "alt_km": 533.5559890368704,
        "timestamp": "2025-12-26T03:50:11.744729+00:00",
        "meta_object_name": "SKYSAT-A",
        "meta_object_id": "2013-066C",
        "meta_epoch": "2025-12-25T17:09:33.388128",
        "meta_mean_motion": 15.11695287,
        "meta_eccentricity": 0.00217,
        "meta_inclination": 97.4085,
        "meta_ra_of_asc_node": 49.5285,
        "meta_arg_of_pericenter": 190.0651,
        "meta_mean_anomaly": 170.0148,
        "meta_ephemeris_type": 0,
        "meta_classification_type": "U",
        "meta_norad_cat_id": 39418,
        "meta_element_set_no": 999,
        "meta_rev_at_epoch": 66226,
        "meta_bstar": 0.00021064,
        "meta_mean_motion_dot": 3.542e-05,
        "meta_mean_motion_ddot": 0,
        "tle_line1": "1 39418U 13066C   25359.71496977  .00003542  00000+0  21064-3 0  9994",
        "tle_line2": "2 39418  97.4085  49.5285 0021700 190.0651 170.0148 15.11695287662263"
      },
      "geometry": {
        "type": "Point",
        "coordinates": [
          -166.05438024103887,
          -77.52183322967343
        ]
      }
    },
    {
      "type": "Feature",
      "properties": {
        "norad_id": 39419,
        "name": "DUBAISAT-2",
        "group": "resource",
        "lat": -64.85592908574905,
        "lon": 153.97315491674752,
        "alt_km": 541.81891695376,
        "timestamp": "2025-12-26T03:50:11.744739+00:00",
        "meta_object_name": "DUBAISAT-2",
        "meta_object_id": "2013-066D",
        "meta_epoch": "2025-12-25T21:58:23.361024",
        "meta_mean_motion": 15.08480458,
        "meta_eccentricity": 0.0009826,
        "meta_inclination": 97.4469,
        "meta_ra_of_asc_node": 349.9171,
        "meta_arg_of_pericenter": 269.6488,
        "meta_mean_anomaly": 90.3615,
        "meta_ephemeris_type": 0,
        "meta_classification_type": "U",
        "meta_norad_cat_id": 39419,
        "meta_element_set_no": 999,
        "meta_rev_at_epoch": 66025,
        "meta_bstar": 0.00024779,
        "meta_mean_motion_dot": 3.804e-05,
        "meta_mean_motion_ddot": 0,
        "tle_line1": "1 39419U 13066D   25359.91554816  .00003804  00000+0  24779-3 0  9991",
        "tle_line2": "2 39419  97.4469 349.9171 0009826 269.6488  90.3615 15.08480458660255"
      },
      "geometry": {
        "type": "Point",
        "coordinates": [
          153.97315491674752,
          -64.85592908574905
        ]
      }
    },
    {
      "type": "Feature",
      "properties": {
        "norad_id": 39574,
        "name": "GPM-CORE",
        "group": "resource",
        "lat": 7.537074239825497,
        "lon": 171.28360929845965,
        "alt_km": 436.2073824914769,
        "timestamp": "2025-12-26T03:50:11.744750+00:00",
        "meta_object_name": "GPM-CORE",
        "meta_object_id": "2014-009C",
        "meta_epoch": "2025-12-25T20:01:53.111136",
        "meta_mean_motion": 15.44668844,
        "meta_eccentricity": 0.0009062,
        "meta_inclination": 64.9728,
        "meta_ra_of_asc_node": 168.8282,
        "meta_arg_of_pericenter": 251.1485,
        "meta_mean_anomaly": 108.8673,
        "meta_ephemeris_type": 0,
        "meta_classification_type": "U",
        "meta_norad_cat_id": 39574,
        "meta_element_set_no": 999,
        "meta_rev_at_epoch": 67103,
        "meta_bstar": 0.00019801,
        "meta_mean_motion_dot": 9.051e-05,
        "meta_mean_motion_ddot": 0,
        "tle_line1": "1 39574U 14009C   25359.83464249  .00009051  00000+0  19801-3 0  9992",
        "tle_line2": "2 39574  64.9728 168.8282 0009062 251.1485 108.8673 15.44668844671034"
      },
      "geometry": {
        "type": "Point",
        "coordinates": [
          171.28360929845965,
          7.537074239825497
        ]
      }
    },
    {
      "type": "Feature",
      "properties": {
        "norad_id": 39634,
        "name": "SENTINEL-1A",
        "group": "resource",
        "lat": 19.344472365278676,
        "lon": 2.3077561822406243,
        "alt_km": 695.5515251210345,
        "timestamp": "2025-12-26T03:50:11.744760+00:00",
        "meta_object_name": "SENTINEL-1A",
        "meta_object_id": "2014-016A",
        "meta_epoch": "2025-12-25T21:09:51.897888",
        "meta_mean_motion": 14.59199007,
        "meta_eccentricity": 0.000126,
        "meta_inclination": 98.1803,
        "meta_ra_of_asc_node": 4.9285,
        "meta_arg_of_pericenter": 85.6066,
        "meta_mean_anomaly": 274.5278,
        "meta_ephemeris_type": 0,
        "meta_classification_type": "U",
        "meta_norad_cat_id": 39634,
        "meta_element_set_no": 999,
        "meta_rev_at_epoch": 62474,
        "meta_bstar": -2.2068e-05,
        "meta_mean_motion_dot": -1.5e-06,
        "meta_mean_motion_ddot": 0,
        "tle_line1": "1 39634U 14016A   25359.88185067 -.00000150  00000+0 -22068-4 0  9993",
        "tle_line2": "2 39634  98.1803   4.9285 0001260  85.6066 274.5278 14.59199007624747"
      },
      "geometry": {
        "type": "Point",
        "coordinates": [
          2.3077561822406243,
          19.344472365278676
        ]
      }
    },
    {
      "type": "Feature",
      "properties": {
        "norad_id": 39731,
        "name": "KAZEOSAT 1",
        "group": "resource",
        "lat": -66.32531556120213,
        "lon": -127.78545557124224,
        "alt_km": 759.6672944121829,
        "timestamp": "2025-12-26T03:50:11.744770+00:00",
        "meta_object_name": "KAZEOSAT 1",
        "meta_object_id": "2014-024A",
        "meta_epoch": "2025-12-25T20:01:49.486656",
        "meta_mean_motion": 14.42069408,
        "meta_eccentricity": 0.0001222,
        "meta_inclination": 98.3415,
        "meta_ra_of_asc_node": 71.4472,
        "meta_arg_of_pericenter": 96.0728,
        "meta_mean_anomaly": 264.0601,
        "meta_ephemeris_type": 0,
        "meta_classification_type": "U",
        "meta_norad_cat_id": 39731,
        "meta_element_set_no": 999,
        "meta_rev_at_epoch": 61357,
        "meta_bstar": 5.7159e-05,
        "meta_mean_motion_dot": 1.45e-06,
        "meta_mean_motion_ddot": 0,
        "tle_line1": "1 39731U 14024A   25359.83460054  .00000145  00000+0  57159-4 0  9998",
        "tle_line2": "2 39731  98.3415  71.4472 0001222  96.0728 264.0601 14.42069408613578"
      },
      "geometry": {
        "type": "Point",
        "coordinates": [
          -127.78545557124224,
          -66.32531556120213
        ]
      }
    },
    {
      "type": "Feature",
      "properties": {
        "norad_id": 39766,
        "name": "ALOS-2",
        "group": "resource",
        "lat": 43.505575213159275,
        "lon": -77.59090123382722,
        "alt_km": 626.6289506543308,
        "timestamp": "2025-12-26T03:50:11.744781+00:00",
        "meta_object_name": "ALOS-2",
        "meta_object_id": "2014-029A",
        "meta_epoch": "2025-12-25T20:43:54.487776",
        "meta_mean_motion": 14.79469129,
        "meta_eccentricity": 0.0001391,
        "meta_inclination": 97.9218,
        "meta_ra_of_asc_node": 94.5228,
        "meta_arg_of_pericenter": 97.4006,
        "meta_mean_anomaly": 262.7364,
        "meta_ephemeris_type": 0,
        "meta_classification_type": "U",
        "meta_norad_cat_id": 39766,
        "meta_element_set_no": 999,
        "meta_rev_at_epoch": 62595,
        "meta_bstar": 0.00012098,
        "meta_mean_motion_dot": 8.52e-06,
        "meta_mean_motion_ddot": 0,
        "tle_line1": "1 39766U 14029A   25359.86382509  .00000852  00000+0  12098-3 0  9999",
        "tle_line2": "2 39766  97.9218  94.5228 0001391  97.4006 262.7364 14.79469129625958"
      },
      "geometry": {
        "type": "Point",
        "coordinates": [
          -77.59090123382722,
          43.505575213159275
        ]
      }
    }
  ]
}